{
  "type": "FeatureCollection",
  "features": [
    {
      "type": "Feature",
      "properties": {
        "norad_id": 63772,
        "name": "BIOMASS",
        "group": "resource",
        "lat": -57.47827417619705,
        "lon": -171.2921119063614,
        "alt_km": 676.6280726491696,
        "timestamp": "2025-12-16T21:38:56.827728+00:00",
        "meta_object_name": "BIOMASS",
        "meta_object_id": "2025-090A",
        "meta_epoch": "2025-12-16T05:33:03.696192",
        "meta_mean_motion": 14.675348,
        "meta_eccentricity": 0.00011376,
        "meta_inclination": 98.0699,
        "meta_ra_of_asc_node": 175.1901,
        "meta_arg_of_pericenter": 81.518,
        "meta_mean_anomaly": 278.6153,
        "meta_ephemeris_type": 0,
        "meta_classification_type": "U",
        "meta_norad_cat_id": 63772,
        "meta_element_set_no": 999,
        "meta_rev_at_epoch": 3385,
        "meta_bstar": 0.00024520741,
        "meta_mean_motion_dot": 1.343e-05,
        "meta_mean_motion_ddot": 0,
        "tle_line1": "1 63772U 25090A   25350.23129278  .00001343  00000+0  24521-3 0  9997",
        "tle_line2": "2 63772  98.0699 175.1901 0001137  81.5180 278.6153 14.67534800 33856"
      },
      "geometry": {
        "type": "Point",
        "coordinates": [
          -171.2921119063614,
          -57.47827417619705
        ]
      }
    },
    {
      "type": "Feature",
      "properties": {
        "norad_id": 64694,
        "name": "GOSAT-GW (IBUKI GW)",
        "group": "resource",
        "lat": 28.033437848606187,
        "lon": 110.65717962041809,
        "alt_km": 667.2997577986398,
        "timestamp": "2025-12-16T21:38:56.827738+00:00",
        "meta_object_name": "GOSAT-GW (IBUKI GW)",
        "meta_object_id": "2025-141A",
        "meta_epoch": "2025-12-16T07:52:12.409824",
        "meta_mean_motion": 14.67560206,
        "meta_eccentricity": 0.00014452,
        "meta_inclination": 98.0429,
        "meta_ra_of_asc_node": 285.7757,
        "meta_arg_of_pericenter": 84.0407,
        "meta_mean_anomaly": 276.0962,
        "meta_ephemeris_type": 0,
        "meta_classification_type": "U",
        "meta_norad_cat_id": 64694,
        "meta_element_set_no": 999,
        "meta_rev_at_epoch": 2502,
        "meta_bstar": 0.0001715114,
        "meta_mean_motion_dot": 9.25e-06,
        "meta_mean_motion_ddot": 0,
        "tle_line1": "1 64694U 25141A   25350.32792141  .00000925  00000+0  17151-3 0  9999",
        "tle_line2": "2 64694  98.0429 285.7757 0001445  84.0407 276.0962 14.67560206 25029"
      },
      "geometry": {
        "type": "Point",
        "coordinates": [
          110.65717962041809,
          28.033437848606187
        ]
      }
    },
    {
      "type": "Feature",
      "properties": {
        "norad_id": 64876,
        "name": "IONOSFERA-M 3",
        "group": "resource",
        "lat": -4.170503325504208,
        "lon": 132.01973764872108,
        "alt_km": 824.9500430691633,
        "timestamp": "2025-12-16T21:38:56.827749+00:00",
        "meta_object_name": "IONOSFERA-M 3",
        "meta_object_id": "2025-155A",
        "meta_epoch": "2025-12-16T08:57:36.867168",
        "meta_mean_motion": 14.21441995,
        "meta_eccentricity": 0.00021478,
        "meta_inclination": 98.5786,
        "meta_ra_of_asc_node": 312.1367,
        "meta_arg_of_pericenter": 54.2512,
        "meta_mean_anomaly": 305.8865,
        "meta_ephemeris_type": 0,
        "meta_classification_type": "U",
        "meta_norad_cat_id": 64876,
        "meta_element_set_no": 999,
        "meta_rev_at_epoch": 2043,
        "meta_bstar": 5.3335395e-05,
        "meta_mean_motion_dot": 7.4e-07,
        "meta_mean_motion_ddot": 0,
        "tle_line1": "1 64876U 25155A   25350.37334337  .00000074  00000+0  53335-4 0  9990",
        "tle_line2": "2 64876  98.5786 312.1367 0002147  54.2512 305.8865 14.21441995 20436"
      },
      "geometry": {
        "type": "Point",
        "coordinates": [
          132.01973764872108,
          -4.170503325504208
        ]
      }
    },
    {
      "type": "Feature",
      "properties": {
        "norad_id": 64877,
        "name": "IONOSFERA-M 4",
        "group": "resource",
        "lat": 4.571954980506234,
        "lon": -48.12179364961831,
        "alt_km": 822.1277613530892,
        "timestamp": "2025-12-16T21:38:56.827759+00:00",
        "meta_object_name": "IONOSFERA-M 4",
        "meta_object_id": "2025-155B",
        "meta_epoch": "2025-12-16T08:06:44.561664",
        "meta_mean_motion": 14.21443118,
        "meta_eccentricity": 0.00015231,
        "meta_inclination": 98.5786,
        "meta_ra_of_asc_node": 312.0218,
        "meta_arg_of_pericenter": 59.8324,
        "meta_mean_anomaly": 300.3005,
        "meta_ephemeris_type": 0,
        "meta_classification_type": "U",
        "meta_norad_cat_id": 64877,
        "meta_element_set_no": 999,
        "meta_rev_at_epoch": 2042,
        "meta_bstar": 5.6848277e-05,
        "meta_mean_motion_dot": 8.2e-07,
        "meta_mean_motion_ddot": 0,
        "tle_line1": "1 64877U 25155B   25350.33801576  .00000082  00000+0  56848-4 0  9992",
        "tle_line2": "2 64877  98.5786 312.0218 0001523  59.8324 300.3005 14.21443118 20424"
      },
      "geometry": {
        "type": "Point",
        "coordinates": [
          -48.12179364961831,
          4.571954980506234
        ]
      }
    },
    {
      "type": "Feature",
      "properties": {
        "norad_id": 64899,
        "name": "MICROCARB",
        "group": "resource",
        "lat": -16.69792982286135,
        "lon": -116.23792892760872,
        "alt_km": 654.1651152171489,
        "timestamp": "2025-12-16T21:38:56.827782+00:00",
        "meta_object_name": "MICROCARB",
        "meta_object_id": "2025-156A",
        "meta_epoch": "2025-12-16T04:26:45.854016",
        "meta_mean_motion": 14.72062609,
        "meta_eccentricity": 0.00173371,
        "meta_inclination": 98.0023,
        "meta_ra_of_asc_node": 65.4754,
        "meta_arg_of_pericenter": 134.3028,
        "meta_mean_anomaly": 225.9604,
        "meta_ephemeris_type": 0,
        "meta_classification_type": "U",
        "meta_norad_cat_id": 64899,
        "meta_element_set_no": 999,
        "meta_rev_at_epoch": 2104,
        "meta_bstar": 0.00011110009,
        "meta_mean_motion_dot": 6.5e-06,
        "meta_mean_motion_ddot": 0,
        "tle_line1": "1 64899U 25156A   25350.18525294  .00000650  00000+0  11110-3 0  9993",
        "tle_line2": "2 64899  98.0023  65.4754 0017337 134.3028 225.9604 14.72062609 21045"
      },
      "geometry": {
        "type": "Point",
        "coordinates": [
          -116.23792892760872,
          -16.69792982286135
        ]
      }
    },
    {
      "type": "Feature",
      "properties": {
        "norad_id": 64900,
        "name": "CO3D 3",
        "group": "resource",
        "lat": -57.611787765011776,
        "lon": -124.67000952661473,
        "alt_km": 513.1722474931958,
        "timestamp": "2025-12-16T21:38:56.827794+00:00",
        "meta_object_name": "CO3D 3",
        "meta_object_id": "2025-156B",
        "meta_epoch": "2025-12-13T16:46:35.865408",
        "meta_mean_motion": 15.2020033,
        "meta_eccentricity": 0.00013843,
        "meta_inclination": 97.4344,
        "meta_ra_of_asc_node": 64.0523,
        "meta_arg_of_pericenter": 93.9049,
        "meta_mean_anomaly": 266.2345,
        "meta_ephemeris_type": 0,
        "meta_classification_type": "U",
        "meta_norad_cat_id": 64900,
        "meta_element_set_no": 999,
        "meta_rev_at_epoch": 2135,
        "meta_bstar": 0.00015817929,
        "meta_mean_motion_dot": 3.358e-05,
        "meta_mean_motion_ddot": 0,
        "tle_line1": "1 64900U 25156B   25347.69902622  .00003358  00000+0  15818-3 0  9999",
        "tle_line2": "2 64900  97.4344  64.0523 0001384  93.9049 266.2345 15.20200330 21357"
      },
      "geometry": {
        "type": "Point",
        "coordinates": [
          -124.67000952661473,
          -57.611787765011776
        ]
      }
    },
    {
      "type": "Feature",
      "properties": {
        "norad_id": 64901,
        "name": "CO3D 4",
        "group": "resource",
        "lat": -56.579579652732036,
        "lon": -124.20354163564168,
        "alt_km": 511.9370375519484,
        "timestamp": "2025-12-16T21:38:56.827805+00:00",
        "meta_object_name": "CO3D 4",
        "meta_object_id": "2025-156C",
        "meta_epoch": "2025-12-16T07:58:14.221056",
        "meta_mean_motion": 15.20198549,
        "meta_eccentricity": 9.975e-05,
        "meta_inclination": 97.4346,
        "meta_ra_of_asc_node": 66.648,
        "meta_arg_of_pericenter": 184.8541,
        "meta_mean_anomaly": 175.2685,
        "meta_ephemeris_type": 0,
        "meta_classification_type": "U",
        "meta_norad_cat_id": 64901,
        "meta_element_set_no": 999,
        "meta_rev_at_epoch": 2175,
        "meta_bstar": 0.00021555533,
        "meta_mean_motion_dot": 4.601e-05,
        "meta_mean_motion_ddot": 0,
        "tle_line1": "1 64901U 25156C   25350.33210904  .00004601  00000+0  21556-3 0  9998",
        "tle_line2": "2 64901  97.4346  66.6480 0000997 184.8541 175.2685 15.20198549 21754"
      },
      "geometry": {
        "type": "Point",
        "coordinates": [
          -124.20354163564168,
          -56.579579652732036
        ]
      }
    }
  ]
}